     2.100          NAVIGATION                              RINEX VERSION / TYPE
fic2rin                                 09/06/2016 01:30:30 PGM / RUN BY / DATE
                                                            END OF HEADER
 1 16  9  5  2  0  0.0  .328216701746D-04  .136424205266D-11  .000000000000D+00
     .940000000000D+02 -.258750000000D+02  .478341353409D-08  .337101316046D+00
    -.133924186230D-05  .586184859276D-02  .444613397121D-05  .515369919014D+04
     .936000000000D+05  .335276126862D-07  .224612796153D+01  .119209289551D-06
     .965119734094D+00  .298312500000D+03  .542828885928D+00 -.836641992354D-08
    -.307155651409D-10  .100000000000D+01  .191300000000D+04  .000000000000D+00
     .240000000000D+01  .000000000000D+00  .512227416039D-08  .940000000000D+02
     .864060000000D+05  .400000000000D+01
 2 16  9  5  2  0  0.0  .556856859475D-03 -.466116034659D-11  .000000000000D+00
     .430000000000D+02 -.218750000000D+02  .529307762079D-08  .778027136547D+00
    -.126659870148D-05  .159119414166D-01  .417605042458D-05  .515362504196D+04
     .936000000000D+05 -.203028321266D-06  .219843504738D+01  .707805156708D-07
     .943897844220D+00  .290687500000D+03 -.208839804186D+01 -.883251076667D-08
    -.136791412197D-09  .100000000000D+01  .191300000000D+04  .000000000000D+00
     .240000000000D+01  .000000000000D+00 -.204890966415D-07  .430000000000D+02
     .864060000000D+05  .400000000000D+01
 3 16  9  5  2  0  0.0 -.851848162711D-04 -.238742359215D-11  .000000000000D+00
     .310000000000D+02 -.399375000000D+02  .453161733148D-08 -.239870851927D+00
    -.197812914848D-05  .158695969731D-03  .108350068331D-04  .515363273048D+04
     .936000000000D+05  .372529029846D-07 -.299561466061D+01 -.670552253723D-07
     .959888794010D+00  .171437500000D+03 -.226989280386D-01 -.796854620765D-08
    -.170721396946D-09  .100000000000D+01  .191300000000D+04  .000000000000D+00
     .240000000000D+01  .000000000000D+00  .139698386192D-08  .310000000000D+02
     .864060000000D+05  .400000000000D+01
 4 16  9  5  2  0  0.0 -.260591506958D-03 -.341060513165D-12  .000000000000D+00
     .690000000000D+02 -.403437500000D+02  .493091967831D-08 -.270204133094D+01
    -.200793147087D-05  .843876996078D-02  .110771507025D-04  .515367962456D+04
     .936000000000D+05  .745058059692D-07  .169485859126D+00 -.465661287308D-07
     .983403803584D+00  .176031250000D+03  .900058747837D+00 -.754138555755D-08
    -.260367988229D-09  .100000000000D+01  .191300000000D+04  .000000000000D+00
     .340000000000D+01  .630000000000D+02 -.195577740669D-07  .690000000000D+02
     .864060000000D+05  .400000000000D+01
 5 16  9  5  2  0  0.0 -.932672992349D-04  .261479726760D-11  .000000000000D+00
     .380000000000D+02 -.380000000000D+02  .476198407004D-08 -.302109538004D+01
    -.197999179363D-05  .472842762247D-02  .108666718006D-04  .515359765434D+04
     .936000000000D+05 -.819563865662D-07 -.300885981557D+01 -.633299350739D-07
     .946926135846D+00  .166093750000D+03  .494779584459D+00 -.801390523989D-08
    -.138577200868D-09  .100000000000D+01  .191300000000D+04  .000000000000D+00
     .240000000000D+01  .000000000000D+00 -.107102096081D-07  .380000000000D+02
     .864060000000D+05  .400000000000D+01
 6 16  9  5  2  0  0.0  .242056790739D-03  .511590769747D-11  .000000000000D+00
     .960000000000D+02 -.270312500000D+02  .469733852015D-08  .690334661312D+00
    -.141002237797D-05  .216765212826D-03  .393390655518D-05  .515375593376D+04
     .936000000000D+05 -.242143869400D-07  .223771623231D+01  .149011611938D-07
     .964926023259D+00  .299906250000D+03 -.143655196670D+01 -.832391815317D-08
     .750031241812D-11  .100000000000D+01  .191300000000D+04  .000000000000D+00
     .240000000000D+01  .000000000000D+00  .419095158577D-08  .960000000000D+02
     .864060000000D+05  .400000000000D+01
 7 16  9  5  2  0  0.0  .429700594395D-03 -.284217094304D-11  .000000000000D+00
     .580000000000D+02 -.143125000000D+02  .488448917287D-08 -.347629677063D+00
    -.873580574989D-06  .998239510227D-02  .379607081413D-05  .515362527084D+04
     .936000000000D+05  .447034835815D-07 -.878381381345D+00  .152736902237D-06
     .965083841399D+00  .306437500000D+03 -.263624687266D+01 -.852356932659D-08
    -.314655963827D-09  .100000000000D+01  .191300000000D+04  .000000000000D+00
     .240000000000D+01  .000000000000D+00 -.111758708954D-07  .580000000000D+02
     .864060000000D+05  .400000000000D+01
 8 16  9  5  2  0  0.0 -.305888243020D-04 -.147792889038D-11  .000000000000D+00
     .280000000000D+02  .477812500000D+02  .433018036939D-08 -.300465729958D+01
     .247173011303D-05  .170920626260D-02  .851042568684D-05  .515374539566D+04
     .936000000000D+05  .596046447754D-07  .118440595058D+01 -.931322574615D-08
     .964029413935D+00  .216593750000D+03 -.102717821412D+01 -.799533303771D-08
     .427874965567D-09  .100000000000D+01  .191300000000D+04  .000000000000D+00
     .240000000000D+01  .000000000000D+00  .512227416039D-08  .280000000000D+02
     .864060000000D+05  .400000000000D+01
 9 16  9  5  2  0  0.0  .200201291591D-03  .727595761418D-11  .000000000000D+00
     .450000000000D+02  .709062500000D+02  .482448667352D-08  .240213106293D+01
     .375509262085D-05  .510285957716D-03  .847503542900D-05  .515379498291D+04
     .936000000000D+05  .782310962677D-07 -.195724918278D+01 -.800937414169D-07
     .954378182025D+00  .210687500000D+03  .205991253259D+01 -.823677166603D-08
     .331085219600D-09  .100000000000D+01  .191300000000D+04  .000000000000D+00
     .240000000000D+01  .000000000000D+00  .139698386192D-08  .450000000000D+02
     .864060000000D+05  .400000000000D+01
10 16  9  5  2  0  0.0 -.934051349759D-04 -.511590769747D-11  .000000000000D+00
     .420000000000D+02 -.301250000000D+02  .443411327004D-08 -.185209372570D+01
    -.171922147274D-05  .169608916622D-02  .111032277346D-04  .515368542671D+04
     .936000000000D+05  .745058059692D-07 -.299953433455D+01 -.558793544769D-08
     .960108563804D+00  .164718750000D+03 -.282126798845D+01 -.793854495798D-08
    -.159649507186D-09  .100000000000D+01  .191300000000D+04  .000000000000D+00
     .240000000000D+01  .000000000000D+00  .232830643654D-08  .420000000000D+02
     .864060000000D+05  .400000000000D+01
11 16  9  5  2  0  0.0 -.662847422063D-03 -.216004991671D-11  .000000000000D+00
     .140000000000D+02  .175625000000D+02  .637990860594D-08 -.240341542893D+00
     .862404704094D-06  .168006279273D-01  .407733023167D-05  .515366892433D+04
     .936000000000D+05 -.275671482086D-06  .186194047807D+01  .838190317154D-07
     .897506854020D+00  .270593750000D+03  .156794001143D+01 -.939789145990D-08
     .308227124611D-09  .100000000000D+01  .191300000000D+04  .000000000000D+00
     .240000000000D+01  .000000000000D+00 -.121071934700D-07  .140000000000D+02
     .864060000000D+05  .400000000000D+01
12 16  9  5  2  0  0.0  .388358719647D-03  .341060513165D-12  .000000000000D+00
     .860000000000D+02 -.322500000000D+02  .365622372497D-08 -.948485824493D+00
    -.179745256901D-05  .604814093094D-02  .106357038021D-04  .515367059517D+04
     .936000000000D+05  .108033418655D-06  .199492915852D+00  .132247805595D-06
     .990478500285D+00  .191125000000D+03  .788865584995D+00 -.764174688086D-08
    -.311441544219D-09  .100000000000D+01  .191300000000D+04  .000000000000D+00
     .340000000000D+01  .000000000000D+00 -.125728547573D-07  .860000000000D+02
     .864060000000D+05  .400000000000D+01
13 16  9  5  2  0  0.0 -.418261624873D-04 -.227373675443D-11  .000000000000D+00
     .400000000000D+02  .680000000000D+02  .455304679553D-08  .625058394957D+00
     .357255339622D-05  .402792519890D-02  .717490911484D-05  .515368797302D+04
     .936000000000D+05 -.109896063805D-06 -.183495075133D+01 -.260770320892D-07
     .970599892513D+00  .246468750000D+03  .196590188533D+01 -.815283959849D-08
     .365729519817D-09  .100000000000D+01  .191300000000D+04  .000000000000D+00
     .240000000000D+01  .000000000000D+00 -.111758708954D-07  .400000000000D+02
     .864060000000D+05  .400000000000D+01
14 16  9  5  2  0  0.0 -.334302894771D-04 -.193267624127D-11  .000000000000D+00
     .410000000000D+02  .783750000000D+02  .461197782167D-08  .202087853693D+01
     .390037894249D-05  .893961288966D-02  .788830220699D-05  .515405600739D+04
     .936000000000D+05  .186264514923D-08 -.187265702887D+01 -.203028321266D-06
     .963119891432D+00  .228062500000D+03 -.195237275310D+01 -.805247827518D-08
     .358229207399D-09  .100000000000D+01  .191300000000D+04  .000000000000D+00
     .240000000000D+01  .000000000000D+00 -.931322574615D-08  .410000000000D+02
     .864060000000D+05  .400000000000D+01
15 16  9  5  2  0  0.0 -.326096080244D-03 -.147792889038D-11  .000000000000D+00
     .140000000000D+02  .728125000000D+02  .542665461338D-08  .171064665919D+01
     .395067036152D-05  .840412883554D-02  .848621129990D-05  .515366421890D+04
     .936000000000D+05 -.167638063431D-06 -.201232509045D+01  .186264514923D-06
     .930117569919D+00  .201562500000D+03  .496004946586D+00 -.855357057626D-08
     .277511559470D-09  .100000000000D+01  .191300000000D+04  .000000000000D+00
     .240000000000D+01  .000000000000D+00 -.107102096081D-07  .140000000000D+02
     .864060000000D+05  .400000000000D+01
16 16  9  5  2  0  0.0  .475253909826D-05  .193267624127D-11  .000000000000D+00
     .870000000000D+02 -.432500000000D+02  .356872008009D-08 -.292798255194D+01
    -.226683914661D-05  .867108313832D-02  .112075358629D-04  .515356263924D+04
     .936000000000D+05 -.279396772385D-07  .218283409546D+00 -.782310962677D-07
     .990975536943D+00  .178062500000D+03  .388283339548D+00 -.750281252226D-08
    -.261082303697D-09  .100000000000D+01  .191300000000D+04  .000000000000D+00
     .240000000000D+01  .000000000000D+00 -.107102096081D-07  .870000000000D+02
     .864060000000D+05  .400000000000D+01
